{
  "norad_id": 58020,
  "name": "NESS",
  "history": [
    {
      "epoch": "2026-03-28T16:48:58.106592Z",
      "apogee_km": 488.49710451283045,
      "perigee_km": 477.94707877352084,
      "latitude_deg": -1.569932930149693e-05,
      "longitude_deg": 93.52464107305865,
      "height_km": 489.09575106409153,
      "semi_major_axis_km": 6861.359091643176,
      "eccentricity": 0.0007688,
      "inclination_deg": 97.5923,
      "raan_deg": 171.8841,
      "arg_perigee_deg": 121.9384,
      "mean_anomaly_deg": 238.2603,
      "mean_motion_rev_day": 15.27522228
    },
    {
      "epoch": "2026-03-29T05:23:36.413664Z",
      "apogee_km": 488.4177318465654,
      "perigee_km": 477.8445176663163,
      "latitude_deg": -3.62436714183068e-05,
      "longitude_deg": -95.11790067170968,
      "height_km": 488.875778728811,
      "semi_major_axis_km": 6861.268124756441,
      "eccentricity": 0.0007705,
      "inclination_deg": 97.5925,
      "raan_deg": 172.4177,
      "arg_perigee_deg": 120.232,
      "mean_anomaly_deg": 239.9682,
      "mean_motion_rev_day": 15.27552606
    },
    {
      "epoch": "2026-03-30T04:58:31.030176Z",
      "apogee_km": 488.22828982729425,
      "perigee_km": 477.7403797549323,
      "latitude_deg": 8.91947104141172e-06,
      "longitude_deg": -88.81354649521968,
      "height_km": 488.49314995553067,
      "semi_major_axis_km": 6861.121334791113,
      "eccentricity": 0.0007643,
      "inclination_deg": 97.5924,
      "raan_deg": 173.4181,
      "arg_perigee_deg": 117.56,
      "mean_anomaly_deg": 242.6416,
      "mean_motion_rev_day": 15.27601628
    },
    {
      "epoch": "2026-03-30T04:58:31.031040Z",
      "apogee_km": 488.2281526048682,
      "perigee_km": 477.74051697736013,
      "latitude_deg": 1.0943347111058805e-05,
      "longitude_deg": -88.81355037335535,
      "height_km": 488.49308645200585,
      "semi_major_axis_km": 6861.121334791113,
      "eccentricity": 0.00076428,
      "inclination_deg": 97.5924,
      "raan_deg": 173.4181,
      "arg_perigee_deg": 117.56,
      "mean_anomaly_deg": 242.6416,
      "mean_motion_rev_day": 15.27601628
    }
  ]
}